[
    {
        "Altitude(m)": 604969.0890501112,
        "Argument of Periapsis(deg)": 0.0,
        "Eccentricity": 0.0,
        "Inclination(deg)": 60.0,
        "Latitude(deg)": -0.09258869175038419,
        "Longitude(deg)": 34.977527771884326,
        "Mean Anomaly(deg)": 0.0,
        "RAAN(deg)": 135.0,
        "Satellite Name": "Test1 594",
        "Satellite Number": 594,
        "Semi-Major Axis(m)": 6980739.136638005,
        "Time(s)": 0
    },
    {
        "Altitude(m)": 604900.0290524681,
        "Argument of Periapsis(deg)": 0.00010418945913296404,
        "Eccentricity": 0.0,
        "Inclination(deg)": 60.0,
        "Latitude(deg)": 0.44783769194473894,
        "Longitude(deg)": 35.245649829561486,
        "Mean Anomaly(deg)": 0.6201061454618275,
        "RAAN(deg)": 134.99957995086024,
        "Satellite Name": "Test1 594",
        "Satellite Number": 594,
        "Semi-Major Axis(m)": 6980739.136638005,
        "Time(s)": 10
    }
]